ONEWEB-0098             
1 45442U 20020U   25155.06822661  .00000339  00000+0  92192-3 0  9992
2 45442  87.8835  96.4270 0002205  87.2507 272.8873 13.11416535253081
ONEWEB-0055             
1 45443U 20020V   25155.35646528  .00000494  00000+0  13592-2 0  9999
2 45443  87.8836  96.3723 0002082  82.0785 278.0580 13.11419190253105
ONEWEB-0093             
1 45444U 20020W   25154.87420763 -.00000319  00000+0 -93455-3 0  9992
2 45444  87.8839  96.4521 0001698  70.7705 289.3606 13.11416874253104
ONEWEB-0029             
1 45445U 20020X   25154.58501879  .00000324  00000+0  87717-3 0  9997
2 45445  87.8838  96.5217 0001871  80.0026 280.1313 13.11424925253032
ONEWEB-0068             
1 45446U 20020Y   25154.87393763 -.00000439  00000+0 -12733-2 0  9995
2 45446  87.8838  96.4533 0001857  80.6575 279.4763 13.11419042253025
ONEWEB-0046             
1 45447U 20020Z   25154.56042006 -.00000498  00000+0 -14421-2 0  9994
2 45447  87.8836  96.5256 0001953  72.9935 287.1407 13.11418365252980
ONEWEB-0063             
1 45448U 20020AA  25154.58926795  .00000520  00000+0  14324-2 0  9999
2 45448  87.8836  96.5180 0002185  75.0313 285.1056 13.11418518253078
ONEWEB-0019             
1 45449U 20020AB  25155.32593186 -.00000497  00000+0 -14377-2 0  9990
2 45449  87.8841  96.3878 0002016  82.9741 277.1616 13.11418134253024
